[
    {
        "Altitude(m)": 604983.0529620397,
        "Argument of Periapsis(deg)": 0.0,
        "Eccentricity": 0.0,
        "Inclination(deg)": 60.0,
        "Latitude(deg)": -0.09264194818868744,
        "Longitude(deg)": 5.083916551296559,
        "Mean Anomaly(deg)": -180.0,
        "RAAN(deg)": 285.0,
        "Satellite Name": "Test1 1265",
        "Satellite Number": 1265,
        "Semi-Major Axis(m)": 6980739.136638005,
        "Time(s)": 0
    },
    {
        "Altitude(m)": 605055.3323768611,
        "Argument of Periapsis(deg)": 0.00010418945913296404,
        "Eccentricity": 0.0,
        "Inclination(deg)": 60.0,
        "Latitude(deg)": -0.6330513819327614,
        "Longitude(deg)": 5.3520423393475065,
        "Mean Anomaly(deg)": -179.37989385453815,
        "RAAN(deg)": 284.9995799508602,
        "Satellite Name": "Test1 1265",
        "Satellite Number": 1265,
        "Semi-Major Axis(m)": 6980739.136638005,
        "Time(s)": 10
    }
]